[{"OBJECT_NAME":"STARLINK-11460 [DTC]","OBJECT_ID":"2024-217N","EPOCH":"2026-03-09T09:33:30.180672","MEAN_MOTION":15.69772082,"ECCENTRICITY":0.00017592,"INCLINATION":53.1577,"RA_OF_ASC_NODE":72.9929,"ARG_OF_PERICENTER":67.9448,"MEAN_ANOMALY":292.1757,"EPHEMERIS_TYPE":0,"CLASSIFICATION_TYPE":"U","NORAD_CAT_ID":62069,"ELEMENT_SET_NO":999,"REV_AT_EPOCH":7506,"BSTAR":0.0016413647,"MEAN_MOTION_DOT":0.00203744,"MEAN_MOTION_DDOT":0},{"OBJECT_NAME":"SLS DEB","OBJECT_ID":"2022-156E","EPOCH":"2026-03-08T23:54:32.461920","MEAN_MOTION":13.34108685,"ECCENTRICITY":0.10223164,"INCLINATION":30.4694,"RA_OF_ASC_NODE":285.8849,"ARG_OF_PERICENTER":318.6769,"MEAN_ANOMALY":34.0679,"EPHEMERIS_TYPE":0,"CLASSIFICATION_TYPE":"U","NORAD_CAT_ID":55905,"ELEMENT_SET_NO":999,"REV_AT_EPOCH":14064,"BSTAR":0.0048011197,"MEAN_MOTION_DOT":0.00073659,"MEAN_MOTION_DDOT":0}]
